NORAD_CAT_ID,OBJECT_NAME,OBJECT_TYPE,EPOCH,MEAN_MOTION,ECCENTRICITY,INCLINATION,RA_OF_ASC_NODE,ARG_OF_PERICENTER,MEAN_ANOMALY,BSTAR,MEAN_MOTION_DOT,MEAN_MOTION_DDOT,TLE_LINE0,TLE_LINE1,TLE_LINE2,SEMIMAJOR_AXIS,PERIOD,APOGEE,PERIGEE,DECAYED
53015.0,STARLINK-4262,PAYLOAD,2022-09-28 22:00:00,15.26424971,0.0001858,53.2173,330.9729,37.1295,59.8778,-0.044689,-0.0107947,0.0,0 STARLINK-4262,1 53015U 22076AF  22271.91667824 -.01079470  00000-0 -44689-1 0  9990,2 53015  53.2173 330.9729 0001858  37.1295  59.8778 15.26424971  1308,6864.647,94.338,487.787,485.236,0.0
53015.0,STARLINK-4262,PAYLOAD,2022-09-29 14:00:01,15.24894995,0.0001863,53.2173,327.9009,42.5371,118.0609,-0.046038,-0.01063125,0.0,0 STARLINK-4262,1 53015U 22076AF  22272.58334491 -.01063125  00000-0 -46038-1 0  9995,2 53015  53.2173 327.9009 0001863  42.5371 118.0609 15.24894995  1302,6869.238,94.433,492.383,489.823,0.0
53015.0,STARLINK-4262,PAYLOAD,2022-09-29 22:00:00,15.2413511,0.000177,53.2175,326.3640000000001,43.0594,147.9651,-0.047095,-0.01062937,0.0,0 STARLINK-4262,1 53015U 22076AF  22272.91667824 -.01062937  00000-0 -47095-1 0  9995,2 53015  53.2175 326.3640 0001770  43.0594 147.9651 15.24135110  1303,6871.521,94.48,494.602,492.17,0.0
53015.0,STARLINK-4262,PAYLOAD,2022-09-30 14:00:01,15.22614511,0.0001766999999999,53.2173,323.3044,43.5258,205.6078,-0.04911,-0.01059464,0.0,0 STARLINK-4262,1 53015U 22076AF  22273.58334491 -.01059464  00000-0 -49110-1 0  9991,2 53015  53.2173 323.3044 0001767  43.5258 205.6078 15.22614511  1304,6876.095,94.574,499.175,496.745,0.0
53015.0,STARLINK-4262,PAYLOAD,2022-09-30 22:00:00,15.2186827,0.0001824,53.2174,321.7743,39.218,237.5967,-0.051195,-0.01078506,0.0,0 STARLINK-4262,1 53015U 22076AF  22273.91667824 -.01078506  00000-0 -51195-1 0  9991,2 53015  53.2174 321.7743 0001824  39.2180 237.5967 15.21868270  1306,6878.343000000003,94.621,501.462,498.953,0.0
53015.0,STARLINK-4262,PAYLOAD,2022-10-01 14:00:01,15.20376756,0.0001645,53.2172,318.7242,35.0815,294.3527,-0.055457,-0.01129253,0.0,0 STARLINK-4262,1 53015U 22076AF  22274.58334491 -.01129253  00000-0 -55457-1 0  9997,2 53015  53.2172 318.7242 0001645  35.0815 294.3527 15.20376756  1309,6882.84,94.713,505.838,503.573,0.0
53015.0,STARLINK-4262,PAYLOAD,2022-10-01 22:00:00,15.19579317,0.0001710999999999,53.2174,317.1985,33.3594,321.0441,-0.054013,-0.01064924,0.0,0 STARLINK-4262,1 53015U 22076AF  22274.91667824 -.01064924  00000-0 -54013-1 0  9993,2 53015  53.2174 317.1985 0001711  33.3594 321.0441 15.19579317  1306,6885.248000000001,94.763,508.291,505.935,0.0
53015.0,STARLINK-4262,PAYLOAD,2022-10-02 06:00:00,15.18839701,0.0001705,53.2173,315.6777,40.0556,338.3733,-0.056717,-0.01106031,0.0,0 STARLINK-4262,1 53015U 22076AF  22275.25001157 -.01106031  00000-0 -56717-1 0  9991,2 53015  53.2173 315.6777 0001705  40.0556 338.3733 15.18839701 14071,6887.483,94.809,510.522,508.174,0.0
53015.0,STARLINK-4262,PAYLOAD,2022-10-02 14:00:01,15.1805973,0.000181,53.2171,314.1599,36.4788,5.081,-0.056288,-0.01075475,0.0,0 STARLINK-4262,1 53015U 22076AF  22275.58334491 -.01075475  00000-0 -56288-1 0  9997,2 53015  53.2171 314.1599 0001810  36.4788   5.0810 15.18059730  1300,6889.842,94.858,512.9540000000002,510.46,0.0
53015.0,STARLINK-4262,PAYLOAD,2022-10-02 22:00:00,15.17297781,0.0001805,53.2174,312.6391,37.3988,26.375,-0.0574419999999999,-0.01073751,0.0,0 STARLINK-4262,1 53015U 22076AF  22275.91667824 -.01073751  00000-0 -57442-1 0  9991,2 53015  53.2174 312.6391 0001805  37.3988  26.3750 15.17297781  1300,6892.148,94.906,515.258,512.769,0.0
53015.0,STARLINK-4262,PAYLOAD,2022-10-03 14:00:01,15.15778429,0.0001909999999999,53.2172,309.6097,36.1213,69.3341,-0.059889,-0.01071863,0.0,0 STARLINK-4262,1 53015U 22076AF  22276.58334491 -.01071863  00000-0 -59889-1 0  9995,2 53015  53.2172 309.6097 0001910  36.1213  69.3341 15.15778429  1306,6896.753000000002,95.001,519.936,517.3009999999998,0.0
53015.0,STARLINK-4262,PAYLOAD,2022-10-03 22:00:00,15.15019373,0.0001874,53.2174,308.0953,37.7948,87.134,-0.061291,-0.0107333,0.0,0 STARLINK-4262,1 53015U 22076AF  22276.91667824 -.01073330  00000-0 -61291-1 0  9992,2 53015  53.2174 308.0953 0001874  37.7948  87.1340 15.15019373  1306,6899.057,95.048,522.215,519.629,0.0
53015.0,STARLINK-4262,PAYLOAD,2022-10-04 14:00:01,15.13499709,0.0001916999999999,53.217,305.0785,39.1991,121.9345,-0.063862,-0.01071349,0.0,0 STARLINK-4262,1 53015U 22076AF  22277.58334491 -.01071349  00000-0 -63862-1 0  9991,2 53015  53.2170 305.0785 0001917  39.1991 121.9345 15.13499709  1309,6903.674,95.144,526.863,524.216,0.0
53015.0,STARLINK-4262,PAYLOAD,2022-10-04 16:00:00,15.13313565,0.0001751,53.2171,304.7004,40.356,215.0462,-0.06464,-0.01078153,0.0,0 STARLINK-4262,1 53015U 22076AF  22277.66667824 -.01078153  00000-0 -64640-1 0  9994,2 53015  53.2171 304.7004 0001751  40.3560 215.0462 15.13313565 14441,6904.24,95.155,527.314,524.896,0.0
53015.0,STARLINK-4262,PAYLOAD,2022-10-04 22:00:00,15.12737729,0.0001999,53.2175,303.5693,36.4696,141.401,-0.065086,-0.01068894,0.0,0 STARLINK-4262,1 53015U 22076AF  22277.91667824 -.01068894  00000-0 -65086-1 0  9998,2 53015  53.2175 303.5693 0001999  36.4696 141.4010 15.12737729  1309,6905.9919999999975,95.192,529.238,526.477,0.0
53015.0,STARLINK-4262,PAYLOAD,2022-10-05 14:00:01,15.11221186,0.0001904,53.2172,300.5612,41.0159,167.646,-0.068089,-0.01071495,0.0,0 STARLINK-4262,1 53015U 22076AF  22278.58335648 -.01071495  00000-0 -68089-1 0  9995,2 53015  53.2172 300.5612 0001904  41.0159 167.6460 15.11221186 14583,6910.611999999999,95.287,533.7919999999998,531.161,0.0
53015.0,STARLINK-4262,PAYLOAD,2022-10-05 22:00:00,15.10462775,0.0001828,53.2174,299.0571,43.2441,179.3522,-0.0697049999999999,-0.01073817,0.0,0 STARLINK-4262,1 53015U 22076AF  22278.91667824 -.01073817  00000-0 -69705-1 0  9992,2 53015  53.2174 299.0571 0001828  43.2441 179.3522 15.10462775  1309,6912.925,95.335,536.053,533.526,0.0
53015.0,STARLINK-4262,PAYLOAD,2022-10-06 14:00:01,15.08947796,0.0002003,53.2171,296.0616,41.534,206.3444,-0.011105,-0.0017332,0.0,0 STARLINK-4262,1 53015U 22076AF  22279.58334491 -.00173320  00000-0 -11105-1 0  9997,2 53015  53.2171 296.0616 0002003  41.5340 206.3444 15.08947796  1300,6917.551,95.431,540.802,538.03,0.0
53015.0,STARLINK-4262,PAYLOAD,2022-10-06 22:42:55,15.08823781,0.0001743,53.2168,294.4364,41.5481,19.7438,0.0039789,0.0006358,0.0,0 STARLINK-4262,1 53015U 22076AF  22279.94646991  .00063580  00000-0  39789-2 0  9991,2 53015  53.2168 294.4364 0001743  41.5481  19.7438 15.08823781  1300,6917.93,95.439,541.001,538.589,0.0
53015.0,STARLINK-4262,PAYLOAD,2022-10-07 00:00:00,15.08833939,0.0001764999999999,53.217,294.1961,42.5643,309.7121,0.0033999,0.00054229,0.0,0 STARLINK-4262,1 53015U 22076AF  22280.00001157  .00054229  00000-0  33999-2 0  9996,2 53015  53.2170 294.1961 0001765  42.5643 309.7121 15.08833939 14792,6917.899,95.438,540.985,538.543,0.0
53015.0,STARLINK-4262,PAYLOAD,2022-10-07 14:00:01,15.08865742,0.0001911999999999,53.2163,291.5789,35.7555,246.8571,-0.003193,-0.00050783,0.0,0 STARLINK-4262,1 53015U 22076AF  22280.58334491 -.00050783  00000-0 -31930-2 0  9995,2 53015  53.2163 291.5789 0001912  35.7555 246.8571 15.08865742  1303,6917.802,95.436,540.989,538.344,0.0
53015.0,STARLINK-4262,PAYLOAD,2022-10-07 22:00:00,15.08799494,0.0001738,53.2164,290.0809,42.7086,251.5169,0.0038659999999999,0.0006171,0.0,0 STARLINK-4262,1 53015U 22076AF  22280.91667824  .00061710  00000-0  38660-2 0  9998,2 53015  53.2164 290.0809 0001738  42.7086 251.5169 15.08799494  1300,6918.004,95.44,541.072,538.6669999999998,0.0
53015.0,STARLINK-4262,PAYLOAD,2022-10-08 06:00:00,15.08844832,0.0001892,53.2163,288.5859,41.7128,264.0849,-0.00040729,-6.765e-05,0.0,0 STARLINK-4262,1 53015U 22076AF  22281.25001157 -.00006765  00000-0 -40729-3 0  9998,2 53015  53.2163 288.5859 0001892  41.7128 264.0849 15.08844832 14982,6917.866,95.437,541.039,538.422,0.0
53015.0,STARLINK-4262,PAYLOAD,2022-10-08 14:00:01,15.08867854,0.0001969,53.2158,287.0895,40.4985,276.8913,-0.0027521,-0.00043856,0.0,0 STARLINK-4262,1 53015U 22076AF  22281.58334491 -.00043856  00000-0 -27521-2 0  9990,2 53015  53.2158 287.0895 0001969  40.4985 276.8913 15.08867854  1306,6917.795,95.436,541.0219999999998,538.298,0.0
53015.0,STARLINK-4262,PAYLOAD,2022-10-08 22:00:00,15.08813039,0.0001858,53.2158,285.5915,49.3527,279.6626,0.0040496,0.00064706,0.0,0 STARLINK-4262,1 53015U 22076AF  22281.91667824  .00064706  00000-0  40496-2 0  9997,2 53015  53.2158 285.5915 0001858  49.3527 279.6626 15.08813039  1307,6917.9630000000025,95.439,541.113,538.5419999999998,0.0
53015.0,STARLINK-4262,PAYLOAD,2022-10-09 06:00:00,15.088592000000002,0.0001999,53.2157,284.0965,46.852,293.7532,-0.0004083,-6.784e-05,0.0,0 STARLINK-4262,1 53015U 22076AF  22282.25001157 -.00006784  00000-0 -40830-3 0  9993,2 53015  53.2157 284.0965 0001999  46.8520 293.7532 15.08859200 15135,6917.821999999999,95.436,541.07,538.304,0.0
53015.0,STARLINK-4262,PAYLOAD,2022-10-09 14:00:01,15.08881447,0.0001964,53.2154,282.5998,43.5499,308.6701,-0.0027890999999999,-0.00044454,0.0,0 STARLINK-4262,1 53015U 22076AF  22282.58334491 -.00044454  00000-0 -27891-2 0  9996,2 53015  53.2154 282.5998 0001964  43.5499 308.6701 15.08881447  1308,6917.754,95.435,540.977,538.26,0.0
53015.0,STARLINK-4262,PAYLOAD,2022-10-09 22:00:00,15.0883639,0.0001759,53.2154,281.1018,48.7156,315.1368,0.0013689,0.00021563,0.0,0 STARLINK-4262,1 53015U 22076AF  22282.91667824  .00021563  00000-0  13689-2 0  9996,2 53015  53.2154 281.1018 0001759  48.7156 315.1368 15.08836390  1304,6917.891,95.438,540.9730000000002,538.54,0.0
53015.0,STARLINK-4262,PAYLOAD,2022-10-10 08:00:01,15.08853106,0.000196,53.2161,279.2321,43.6183,64.7373,-0.00028464,-4.817e-05,0.0,0 STARLINK-4262,1 53015U 22076AF  22283.33334491 -.00004817  00000-0 -28464-3 0  9997,2 53015  53.2161 279.2321 0001960  43.6183  64.7373 15.08853106 15307,6917.84,95.437,541.061,538.349,0.0
